     2.100          NAVIGATION                              RINEX VERSION / TYPE
fic2rin                                 01/14/2017 03:57:21 PGM / RUN BY / DATE
                                                            END OF HEADER
19 17  1 13 22  0  0.0 -.515794847161D-03  .909494701773D-12  .000000000000D+00
     .640000000000D+02 -.623750000000D+02  .450733060555D-08  .185676346993D+01
    -.348687171936D-05  .102022574283D-01  .119768083096D-05  .515364264297D+04
     .511200000000D+06 -.210478901863D-06 -.970750080072D+00 -.167638063431D-06
     .975796082441D+00  .370531250000D+03  .905907122736D+00 -.841999358367D-08
    -.281797452281D-09  .100000000000D+01  .193100000000D+04  .000000000000D+00
     .240000000000D+01  .000000000000D+00 -.149011611938D-07  .640000000000D+02
     .504006000000D+06  .400000000000D+01
20 17  1 13 22  0  0.0  .455362722278D-03  .170530256582D-11  .000000000000D+00
     .580000000000D+02  .156562500000D+02  .513521390227D-08 -.214512261870D+01
     .933185219765D-06  .470665644389D-02  .106487423182D-04  .515362458229D+04
     .511200000000D+06  .670552253723D-07  .936357164223D+00  .670552253723D-07
     .926607581794D+00  .149000000000D+03  .153330971372D+01 -.819426989566D-08
     .770746390395D-09  .100000000000D+01  .193100000000D+04  .000000000000D+00
     .240000000000D+01  .000000000000D+00 -.838190317154D-08  .580000000000D+02
     .504006000000D+06  .400000000000D+01
21 17  1 13 22  0  0.0 -.525470357388D-03  .136424205266D-11  .000000000000D+00
     .460000000000D+02 -.154906250000D+03  .476984154019D-08  .117266331196D+01
    -.825710594654D-05  .236999816261D-01  .991858541965D-05  .515376956940D+04
     .511200000000D+06 -.368803739548D-06 -.527508451473D-01 -.368803739548D-06
     .938902533425D+00  .187750000000D+03 -.172310812308D+01 -.850678291308D-08
    -.235009789101D-09  .100000000000D+01  .193100000000D+04  .000000000000D+00
     .240000000000D+01  .000000000000D+00 -.977888703346D-08  .460000000000D+02
     .504006000000D+06  .400000000000D+01
22 17  1 13 22  0  0.0  .132910907269D-03 -.113686837722D-10  .000000000000D+00
     .460000000000D+02  .271250000000D+02  .527664836501D-08 -.178134432293D+01
     .149756669998D-05  .731497479137D-02  .956468284130D-05  .515361927032D+04
     .511200000000D+06  .132247805595D-06  .988011154356D+00  .707805156708D-07
     .923220764056D+00  .170218750000D+03 -.182147995735D+01 -.827677333226D-08
     .680742641378D-09  .100000000000D+01  .193100000000D+04  .000000000000D+00
     .240000000000D+01  .000000000000D+00 -.176951289177D-07  .460000000000D+02
     .504006000000D+06  .400000000000D+01
23 17  1 13 22  0  0.0 -.202589668334D-03 -.102318153949D-11  .000000000000D+00
     .360000000000D+02 -.108750000000D+02  .545379860117D-08 -.245846368744D+01
    -.804662704468D-06  .111871319823D-01  .457279384136D-05  .515354578972D+04
     .511200000000D+06  .139698386192D-06  .206985013071D+01 -.214204192162D-06
     .944445265239D+00  .284312500000D+03 -.251566211076D+01 -.841106464032D-08
    -.289297764699D-10  .100000000000D+01  .193100000000D+04  .000000000000D+00
     .240000000000D+01  .000000000000D+00 -.200234353542D-07  .360000000000D+02
     .504006000000D+06  .400000000000D+01
24 17  1 13 22  0  0.0 -.289883464575D-04 -.568434188608D-12  .000000000000D+00
     .350000000000D+02  .918750000000D+01  .467983779117D-08 -.313553616689D+01
     .445172190666D-06  .536839338019D-02  .122189521790D-04  .515371107674D+04
     .511200000000D+06 -.670552253723D-07  .309404177855D+01 -.894069671631D-07
     .947190139894D+00  .136281250000D+03  .434172867763D+00 -.788604277105D-08
    -.614668460551D-09  .100000000000D+01  .193100000000D+04  .000000000000D+00
     .240000000000D+01  .000000000000D+00  .232830643654D-08  .350000000000D+02
     .504006000000D+06  .400000000000D+01
25 17  1 13 22  0  0.0 -.317376106977D-03 -.682121026330D-11  .000000000000D+00
     .150000000000D+02  .143156250000D+03  .406624080382D-08  .113724484373D+01
     .751391053200D-05  .595095288008D-02  .814534723759D-05  .515365550613D+04
     .511200000000D+06 -.186264514923D-08 -.211088701921D+01  .763684511185D-07
     .977844265767D+00  .229187500000D+03  .749809077952D+00 -.807105047736D-08
     .234295473633D-09  .100000000000D+01  .193100000000D+04  .000000000000D+00
     .240000000000D+01  .000000000000D+00  .558793544769D-08  .150000000000D+02
     .504006000000D+06  .400000000000D+01
26 17  1 13 22  0  0.0 -.517148990184D-03 -.170530256582D-11  .000000000000D+00
     .660000000000D+02  .125406250000D+03  .451590239118D-08  .749668779719D+00
     .655092298985D-05  .155230343807D-02  .729598104954D-05  .515364204597D+04
     .511200000000D+06  .000000000000D+00 -.212394375471D+01 -.279396772385D-07
     .959703674893D+00  .233468750000D+03 -.149535177769D+00 -.815533970263D-08
     .185007706314D-09  .100000000000D+01  .193100000000D+04  .000000000000D+00
     .240000000000D+01  .000000000000D+00  .745058059692D-08  .660000000000D+02
     .504006000000D+06  .400000000000D+01
27 17  1 13 22  0  0.0  .193659681827D-03  .568434188608D-11  .000000000000D+00
     .660000000000D+02 -.306250000000D+02  .447768651362D-08 -.116238663722D+01
    -.156089663506D-05  .418430217542D-02  .715255737305D-06  .515365670204D+04
     .511200000000D+06  .856816768646D-07 -.107019916186D+01 -.819563865662D-07
     .973463291328D+00  .373750000000D+03  .281111775080D+00 -.838284917932D-08
    -.132505519387D-09  .100000000000D+01  .193100000000D+04  .000000000000D+00
     .240000000000D+01  .000000000000D+00  .139698386192D-08  .660000000000D+02
     .504006000000D+06  .400000000000D+01
29 17  1 13 22  0  0.0  .633267685771D-03 -.216004991671D-11  .000000000000D+00
     .490000000000D+02 -.420937500000D+02  .446375736198D-08  .102984297206D+01
    -.225752592087D-05  .597069272771D-03  .594183802605D-06  .515368727875D+04
     .511200000000D+06 -.931322574615D-08 -.100896373125D+01  .502914190292D-07
     .979633004961D+00  .377656250000D+03 -.210219070708D+00 -.842392231875D-08
    -.179650340301D-09  .100000000000D+01  .193100000000D+04  .000000000000D+00
     .240000000000D+01  .000000000000D+00 -.102445483208D-07  .490000000000D+02
     .504006000000D+06  .400000000000D+01
30 17  1 13 22  0  0.0  .160273164511D-03  .341060513165D-12  .000000000000D+00
     .540000000000D+02  .271562500000D+02  .467769484477D-08  .227257528945D+01
     .145286321640D-05  .238509278279D-02  .117607414722D-04  .515372966766D+04
     .511200000000D+06 -.167638063431D-07 -.309720996318D+01  .104308128357D-06
     .949934160205D+00  .149093750000D+03  .309598862115D+01 -.794711674360D-08
    -.465733685392D-09  .100000000000D+01  .193100000000D+04  .000000000000D+00
     .240000000000D+01  .000000000000D+00  .372529029846D-08  .540000000000D+02
     .504006000000D+06  .400000000000D+01
31 17  1 13 22  0  0.0  .225263647735D-03 -.227373675443D-11  .000000000000D+00
     .870000000000D+02  .124687500000D+02  .419838916547D-08  .207586640325D+01
     .972300767899D-06  .854796462227D-02  .122431665659D-04  .515363605881D+04
     .511200000000D+06  .745058059692D-08 -.312768692090D+01  .113621354103D-06
     .968952017701D+00  .147156250000D+03 -.307820713717D+00 -.768924885951D-08
    -.659313177326D-09  .100000000000D+01  .193100000000D+04  .000000000000D+00
     .240000000000D+01  .000000000000D+00 -.135041773319D-07  .870000000000D+02
     .504006000000D+06  .400000000000D+01
32 17  1 13 22  0  0.0 -.280402600765D-03 -.148929757415D-10  .000000000000D+00
     .930000000000D+02 -.759375000000D+01  .518664461600D-08 -.387865391168D+00
    -.379979610443D-06  .662797363475D-03  .480748713017D-05  .515367243958D+04
     .511200000000D+06 -.130385160446D-07  .206931309787D+01  .242143869400D-07
     .958085688960D+00  .285875000000D+03 -.276492418432D+01 -.832141804903D-08
    -.942896418278D-10  .100000000000D+01  .193100000000D+04  .000000000000D+00
     .240000000000D+01  .000000000000D+00  .465661287308D-09  .930000000000D+02
     .504006000000D+06  .400000000000D+01
 1 17  1 14  0  0  0.0  .467426143587D-04  .113686837722D-11  .000000000000D+00
     .670000000000D+02 -.130093750000D+03  .402123892931D-08 -.233789614262D+01
    -.670552253723D-05  .613924767822D-02  .979006290436D-05  .515370200920D+04
     .518400000000D+06 -.465661287308D-07 -.126428364763D-01 -.558793544769D-07
     .966736837887D+00  .194093750000D+03  .550164081525D+00 -.774496546604D-08
    -.892894335490D-10  .100000000000D+01  .193100000000D+04  .000000000000D+00
     .240000000000D+01  .000000000000D+00  .512227416039D-08  .670000000000D+02
     .511206000000D+06  .400000000000D+01
 2 17  1 14  0  0  0.0  .494046136737D-03 -.648014975013D-11  .000000000000D+00
     .112000000000D+03 -.126812500000D+03  .453911764390D-08 -.190487767376D+01
    -.658631324768D-05  .164628431667D-01  .917725265026D-05  .515371702766D+04
     .518400000000D+06  .294297933578D-06 -.631287611320D-01 -.931322574615D-07
     .945594900875D+00  .190875000000D+03 -.203962782168D+01 -.783746931920D-08
    -.122505102829D-09  .100000000000D+01  .193100000000D+04  .000000000000D+00
     .485000000000D+01  .000000000000D+00 -.200234353542D-07  .112000000000D+03
     .511206000000D+06  .400000000000D+01
 3 17  1 14  0  0  0.0 -.105785671622D-03 -.909494701773D-12  .000000000000D+00
     .119000000000D+03  .198437500000D+02  .441946980294D-08  .285827777070D+01
     .109151005745D-05  .485307886265D-03  .100228935480D-04  .515382196045D+04
     .518400000000D+06  .298023223877D-07  .102895032579D+01 -.260770320892D-07
     .959469897658D+00  .185593750000D+03  .600594855632D+00 -.790032908042D-08
     .676099590833D-09  .100000000000D+01  .193100000000D+04  .000000000000D+00
     .485000000000D+01  .000000000000D+00  .186264514923D-08  .119000000000D+03
     .511206000000D+06  .400000000000D+01
